{
  "norad_id": 48062,
  "name": "ONEWEB-0159",
  "history": [
    {
      "epoch": "2026-03-28T17:56:15.930240",
      "apogee_km": 1211.0528513486124,
      "perigee_km": 1208.4694755398868,
      "latitude_deg": -44.81597097104556,
      "longitude_deg": 137.95103359990753,
      "semi_major_axis_km": 7587.89816344425,
      "eccentricity": 0.00017023,
      "inclination_deg": 87.9023,
      "raan_deg": 336.2199,
      "arg_perigee_deg": 72.1474,
      "mean_anomaly_deg": 287.9841,
      "mean_motion_rev_day": 13.134711
    },
    {
      "epoch": "2026-03-29T04:54:26.309952",
      "apogee_km": 1211.0422431346524,
      "perigee_km": 1208.4744993410259,
      "latitude_deg": 38.83528244911346,
      "longitude_deg": -178.1707667200826,
      "semi_major_axis_km": 7587.895371237839,
      "eccentricity": 0.0001692,
      "inclination_deg": 87.9022,
      "raan_deg": 336.1292,
      "arg_perigee_deg": 72.6897,
      "mean_anomaly_deg": 287.4417,
      "mean_motion_rev_day": 13.13471825
    }
  ]
}